IRIDIUM 155             
1 43573U 18061E   22357.37054343  .00000267  00000+0  88186-4 0  9995
2 43573  86.3984 228.1474 0001849  94.2837 265.8570 14.34216182231062
IRIDIUM 154             
1 43574U 18061F   22357.35151732  .00000254  00000+0  83745-4 0  9996
2 43574  86.3990 228.2274 0001923  77.8653 282.2758 14.34216062231119
IRIDIUM 163             
1 43575U 18061G   22357.40226105  .00000264  00000+0  87340-4 0  9996
2 43575  86.3986 228.1608 0002345  84.5760 275.5703 14.34216744231097
IRIDIUM 156             
1 43576U 18061H   22357.37689385  .00000224  00000+0  72807-4 0  9994
2 43576  86.3987 228.1770 0002272  90.5503 269.5953 14.34217955231084
IRIDIUM 164             
1 43577U 18061J   22357.35785678  .00000267  00000+0  88357-4 0  9999
2 43577  86.3988 228.2058 0002055  79.1934 280.9493 14.34219183231122
IRIDIUM 159             
1 43578U 18061K   22357.39591507  .00000264  00000+0  87065-4 0  9992
2 43578  86.3986 228.1536 0001971  80.2083 279.9335 14.34215752231092
IRIDIUM 180             
1 43922U 19002A   22357.46517717  .00000061  00000+0  14638-4 0  9991
2 43922  86.3988 165.0936 0002115  78.5864 281.5570 14.34217991206716
IRIDIUM 176             
1 43923U 19002B   22357.21135689  .00000323  00000+0  47374-4 0  9993
2 43923  86.6122 165.2401 0002249  90.5149 269.6326 14.72265349212105
IRIDIUM 168             
1 43924U 19002C   22357.17974050  .00000062  00000+0  15130-4 0  9997
2 43924  86.3990 165.2540 0001933  84.3242 275.8174 14.34218634206650
IRIDIUM 173             
1 43925U 19002D   22357.44614289  .00000062  00000+0  14901-4 0  9998
2 43925  86.3986 165.0837 0002009  84.5781 275.5644 14.34219786206678
IRIDIUM 169             
1 43926U 19002E   22357.28584989  .00000304  00000+0  92842-4 0  9993
2 43926  86.4249 196.7028 0003455 183.4040 176.7135 14.38611357207366
IRIDIUM 172             
1 43927U 19002F   22357.43978342  .00000064  00000+0  15798-4 0  9999
2 43927  86.3987 165.0905 0002041  81.3067 278.8360 14.34221108206688
IRIDIUM 175             
1 43928U 19002G   22357.47701749  .00000306  00000+0  44677-4 0  9996
2 43928  86.6124 164.9652 0002129  91.3531 268.7930 14.72258817212133
IRIDIUM 171             
1 43929U 19002H   22357.42077564  .00000066  00000+0  16642-4 0  9997
2 43929  86.3997 165.2633 0001915  84.3290 275.8124 14.34219262206673
IRIDIUM 170             
1 43930U 19002J   22357.42139155  .00000545  00000+0  82559-4 0  9996
2 43930  86.6123 165.1574 0002205  88.5297 271.6172 14.72245258212140
IRIDIUM 167             
1 43931U 19002K   22357.48418735  .00000233  00000+0  76049-4 0  9998
2 43931  86.3988 165.0830 0002036  79.3249 280.8176 14.34215319206689
